STARLINK-4302           
1 53481U 22099S   26061.90505274  .00000343  00000+0  31276-4 0  9992
2 53481  97.6019 183.5650 0005084 211.7558 148.3360 15.01262646194966
STARLINK-4360           
1 53482U 22099T   26061.89394933  .00000606  00000+0  51747-4 0  9996
2 53482  97.6047 183.5829 0000919 130.8131 229.3173 15.01262986194965
STARLINK-4426           
1 53484U 22099V   26061.89624108 -.00000514  00000+0 -31396-4 0  9996
2 53484  97.6014 184.4940 0000227 165.0174 195.1060 15.05644885195023
STARLINK-4430           
1 53485U 22099W   26061.89765200  .00000562  00000+0  48281-4 0  9998
2 53485  97.6030 183.5579 0003702 192.5479 167.5654 15.01262469194968
STARLINK-4431           
1 53486U 22099X   26061.90135549  .00000472  00000+0  41263-4 0  9991
2 53486  97.6022 183.5611 0004581 180.2314 179.8909 15.01262256194968
STARLINK-4432           
1 53487U 22099Y   26061.94331158  .00000767  00000+0  57362-4 0  9994
2 53487  97.6040 184.5660 0000429 120.8542 239.2727 15.05647169195036
STARLINK-4421           
1 53488U 22099Z   26061.85470547  .00003541  00000+0  24936-3 0  9994
2 53488  97.6039 184.5425 0001050 200.4927 159.6257 15.05668297195024
STARLINK-4392           
1 53489U 22099AA  26061.89975439  .00000514  00000+0  44526-4 0  9994
2 53489  97.6026 183.5423 0003384 173.7055 186.4212 15.01265350194964
STARLINK-4387           
1 53490U 22099AB  26061.88516942  .00002323  00000+0  16515-3 0  9991
2 53490  97.6037 184.4918 0000656 117.1913 242.9381 15.05652386195016
STARLINK-4450           
1 53491U 22099AC  26061.88493620  .00000586  00000+0  50146-4 0  9997
2 53491  97.6039 183.5662 0001681 210.7138 149.3988 15.01262518194969
STARLINK-4451           
1 53492U 22099AD  26061.95689016  .00000214  00000+0  21227-4 0  9998
2 53492  97.6028 183.6292 0001490 234.3234 125.7852 15.01265001194974
STARLINK-4361           
1 53493U 22099AE  26062.00002315  .00210428  00000+0  98798-3 0  9993
2 53493  97.6459 201.1053 0001423  95.4776 139.6805 15.82608837  5955
STARLINK-4340           
1 53494U 22099AF  26061.91839358  .00000239  00000+0  20781-4 0  9993
2 53494  97.6034 184.5903 0000609  95.5388 264.5908 15.05647115195036
STARLINK-4429           
1 53495U 22099AG  26061.88284244 -.00001091  00000+0 -80413-4 0  9995
2 53495  97.6039 183.5567 0001030 205.0315 155.0860 15.01272576194967
STARLINK-4465           
1 53496U 22099AH  26062.00002315  .00427593  00000+0  20765-2 0  9997
2 53496  97.6410 207.9504 0001027  59.5359 184.7397 15.81322423  5958
STARLINK-4453           
1 53497U 22099AJ  26061.87914420  .00000447  00000+0  39303-4 0  9996
2 53497  97.6026 183.5566 0001863  91.9018 268.2420 15.01260951194963
