[{"OBJECT_NAME":"STARLINK-4302","OBJECT_ID":"2022-099S","EPOCH":"2026-03-02T21:43:16.556736","MEAN_MOTION":15.01262646,"ECCENTRICITY":0.00050849,"INCLINATION":97.6019,"RA_OF_ASC_NODE":183.565,"ARG_OF_PERICENTER":211.7558,"MEAN_ANOMALY":148.336,"EPHEMERIS_TYPE":0,"CLASSIFICATION_TYPE":"U","NORAD_CAT_ID":53481,"ELEMENT_SET_NO":999,"REV_AT_EPOCH":19496,"BSTAR":3.1276138e-5,"MEAN_MOTION_DOT":3.43e-6,"MEAN_MOTION_DDOT":0},{"OBJECT_NAME":"STARLINK-4360","OBJECT_ID":"2022-099T","EPOCH":"2026-03-02T21:27:17.222112","MEAN_MOTION":15.01262986,"ECCENTRICITY":9.198e-5,"INCLINATION":97.6047,"RA_OF_ASC_NODE":183.5829,"ARG_OF_PERICENTER":130.8131,"MEAN_ANOMALY":229.3173,"EPHEMERIS_TYPE":0,"CLASSIFICATION_TYPE":"U","NORAD_CAT_ID":53482,"ELEMENT_SET_NO":999,"REV_AT_EPOCH":19496,"BSTAR":5.1746983e-5,"MEAN_MOTION_DOT":6.06e-6,"MEAN_MOTION_DDOT":0},{"OBJECT_NAME":"STARLINK-4426","OBJECT_ID":"2022-099V","EPOCH":"2026-03-02T21:30:35.229312","MEAN_MOTION":15.05644885,"ECCENTRICITY":2.274e-5,"INCLINATION":97.6014,"RA_OF_ASC_NODE":184.494,"ARG_OF_PERICENTER":165.0174,"MEAN_ANOMALY":195.106,"EPHEMERIS_TYPE":0,"CLASSIFICATION_TYPE":"U","NORAD_CAT_ID":53484,"ELEMENT_SET_NO":999,"REV_AT_EPOCH":19502,"BSTAR":-3.1395598e-5,"MEAN_MOTION_DOT":-5.14e-6,"MEAN_MOTION_DDOT":0},{"OBJECT_NAME":"STARLINK-4430","OBJECT_ID":"2022-099W","EPOCH":"2026-03-02T21:32:37.132800","MEAN_MOTION":15.01262469,"ECCENTRICITY":0.0003702,"INCLINATION":97.603,"RA_OF_ASC_NODE":183.5579,"ARG_OF_PERICENTER":192.5479,"MEAN_ANOMALY":167.5654,"EPHEMERIS_TYPE":0,"CLASSIFICATION_TYPE":"U","NORAD_CAT_ID":53485,"ELEMENT_SET_NO":999,"REV_AT_EPOCH":19496,"BSTAR":4.8281105e-5,"MEAN_MOTION_DOT":5.62e-6,"MEAN_MOTION_DDOT":0},{"OBJECT_NAME":"STARLINK-4431","OBJECT_ID":"2022-099X","EPOCH":"2026-03-02T21:37:57.114336","MEAN_MOTION":15.01262256,"ECCENTRICITY":0.0004581,"INCLINATION":97.6022,"RA_OF_ASC_NODE":183.5611,"ARG_OF_PERICENTER":180.2314,"MEAN_ANOMALY":179.8909,"EPHEMERIS_TYPE":0,"CLASSIFICATION_TYPE":"U","NORAD_CAT_ID":53486,"ELEMENT_SET_NO":999,"REV_AT_EPOCH":19496,"BSTAR":4.1263135e-5,"MEAN_MOTION_DOT":4.72e-6,"MEAN_MOTION_DDOT":0},{"OBJECT_NAME":"STARLINK-4432","OBJECT_ID":"2022-099Y","EPOCH":"2026-03-02T22:38:22.120512","MEAN_MOTION":15.05647169,"ECCENTRICITY":4.29e-5,"INCLINATION":97.604,"RA_OF_ASC_NODE":184.566,"ARG_OF_PERICENTER":120.8542,"MEAN_ANOMALY":239.2727,"EPHEMERIS_TYPE":0,"CLASSIFICATION_TYPE":"U","NORAD_CAT_ID":53487,"ELEMENT_SET_NO":999,"REV_AT_EPOCH":19503,"BSTAR":5.7361922e-5,"MEAN_MOTION_DOT":7.67e-6,"MEAN_MOTION_DDOT":0},{"OBJECT_NAME":"STARLINK-4421","OBJECT_ID":"2022-099Z","EPOCH":"2026-03-02T20:30:46.552608","MEAN_MOTION":15.05668297,"ECCENTRICITY":0.00010503,"INCLINATION":97.6039,"RA_OF_ASC_NODE":184.5425,"ARG_OF_PERICENTER":200.4927,"MEAN_ANOMALY":159.6257,"EPHEMERIS_TYPE":0,"CLASSIFICATION_TYPE":"U","NORAD_CAT_ID":53488,"ELEMENT_SET_NO":999,"REV_AT_EPOCH":19502,"BSTAR":0.00024935662,"MEAN_MOTION_DOT":3.541e-5,"MEAN_MOTION_DDOT":0},{"OBJECT_NAME":"STARLINK-4392","OBJECT_ID":"2022-099AA","EPOCH":"2026-03-02T21:35:38.779296","MEAN_MOTION":15.0126535,"ECCENTRICITY":0.00033847,"INCLINATION":97.6026,"RA_OF_ASC_NODE":183.5423,"ARG_OF_PERICENTER":173.7055,"MEAN_ANOMALY":186.4212,"EPHEMERIS_TYPE":0,"CLASSIFICATION_TYPE":"U","NORAD_CAT_ID":53489,"ELEMENT_SET_NO":999,"REV_AT_EPOCH":19496,"BSTAR":4.4525605e-5,"MEAN_MOTION_DOT":5.14e-6,"MEAN_MOTION_DDOT":0},{"OBJECT_NAME":"STARLINK-4387","OBJECT_ID":"2022-099AB","EPOCH":"2026-03-02T21:14:38.637888","MEAN_MOTION":15.05652386,"ECCENTRICITY":6.568e-5,"INCLINATION":97.6037,"RA_OF_ASC_NODE":184.4918,"ARG_OF_PERICENTER":117.1913,"MEAN_ANOMALY":242.9381,"EPHEMERIS_TYPE":0,"CLASSIFICATION_TYPE":"U","NORAD_CAT_ID":53490,"ELEMENT_SET_NO":999,"REV_AT_EPOCH":19501,"BSTAR":0.00016514584,"MEAN_MOTION_DOT":2.323e-5,"MEAN_MOTION_DDOT":0},{"OBJECT_NAME":"STARLINK-4450","OBJECT_ID":"2022-099AC","EPOCH":"2026-03-02T21:14:18.487680","MEAN_MOTION":15.01262518,"ECCENTRICITY":0.0001681,"INCLINATION":97.6039,"RA_OF_ASC_NODE":183.5662,"ARG_OF_PERICENTER":210.7138,"MEAN_ANOMALY":149.3988,"EPHEMERIS_TYPE":0,"CLASSIFICATION_TYPE":"U","NORAD_CAT_ID":53491,"ELEMENT_SET_NO":999,"REV_AT_EPOCH":19496,"BSTAR":5.0146292e-5,"MEAN_MOTION_DOT":5.86e-6,"MEAN_MOTION_DDOT":0},{"OBJECT_NAME":"STARLINK-4451","OBJECT_ID":"2022-099AD","EPOCH":"2026-03-02T22:57:55.309824","MEAN_MOTION":15.01265001,"ECCENTRICITY":0.00014909,"INCLINATION":97.6028,"RA_OF_ASC_NODE":183.6292,"ARG_OF_PERICENTER":234.3234,"MEAN_ANOMALY":125.7852,"EPHEMERIS_TYPE":0,"CLASSIFICATION_TYPE":"U","NORAD_CAT_ID":53492,"ELEMENT_SET_NO":999,"REV_AT_EPOCH":19497,"BSTAR":2.1226571e-5,"MEAN_MOTION_DOT":2.14e-6,"MEAN_MOTION_DDOT":0},{"OBJECT_NAME":"STARLINK-4361","OBJECT_ID":"2022-099AE","EPOCH":"2026-03-03T00:00:02.000160","MEAN_MOTION":15.82608837,"ECCENTRICITY":0.00014239,"INCLINATION":97.6459,"RA_OF_ASC_NODE":201.1053,"ARG_OF_PERICENTER":95.4776,"MEAN_ANOMALY":139.6805,"EPHEMERIS_TYPE":0,"CLASSIFICATION_TYPE":"U","NORAD_CAT_ID":53493,"ELEMENT_SET_NO":999,"REV_AT_EPOCH":595,"BSTAR":0.00098797583,"MEAN_MOTION_DOT":0.00210428,"MEAN_MOTION_DDOT":0},{"OBJECT_NAME":"STARLINK-4340","OBJECT_ID":"2022-099AF","EPOCH":"2026-03-02T22:02:29.205312","MEAN_MOTION":15.05647115,"ECCENTRICITY":6.097e-5,"INCLINATION":97.6034,"RA_OF_ASC_NODE":184.5903,"ARG_OF_PERICENTER":95.5388,"MEAN_ANOMALY":264.5908,"EPHEMERIS_TYPE":0,"CLASSIFICATION_TYPE":"U","NORAD_CAT_ID":53494,"ELEMENT_SET_NO":999,"REV_AT_EPOCH":19503,"BSTAR":2.078126e-5,"MEAN_MOTION_DOT":2.39e-6,"MEAN_MOTION_DDOT":0},{"OBJECT_NAME":"STARLINK-4429","OBJECT_ID":"2022-099AG","EPOCH":"2026-03-02T21:11:17.586816","MEAN_MOTION":15.01272576,"ECCENTRICITY":0.00010308,"INCLINATION":97.6039,"RA_OF_ASC_NODE":183.5567,"ARG_OF_PERICENTER":205.0315,"MEAN_ANOMALY":155.086,"EPHEMERIS_TYPE":0,"CLASSIFICATION_TYPE":"U","NORAD_CAT_ID":53495,"ELEMENT_SET_NO":999,"REV_AT_EPOCH":19496,"BSTAR":-8.0412963e-5,"MEAN_MOTION_DOT":-1.091e-5,"MEAN_MOTION_DDOT":0},{"OBJECT_NAME":"STARLINK-4465","OBJECT_ID":"2022-099AH","EPOCH":"2026-03-03T00:00:02.000160","MEAN_MOTION":15.81322423,"ECCENTRICITY":0.00010272,"INCLINATION":97.641,"RA_OF_ASC_NODE":207.9504,"ARG_OF_PERICENTER":59.5359,"MEAN_ANOMALY":184.7397,"EPHEMERIS_TYPE":0,"CLASSIFICATION_TYPE":"U","NORAD_CAT_ID":53496,"ELEMENT_SET_NO":999,"REV_AT_EPOCH":595,"BSTAR":0.0020765274,"MEAN_MOTION_DOT":0.00427593,"MEAN_MOTION_DDOT":0},{"OBJECT_NAME":"STARLINK-4453","OBJECT_ID":"2022-099AJ","EPOCH":"2026-03-02T21:05:58.058880","MEAN_MOTION":15.01260951,"ECCENTRICITY":0.00018636,"INCLINATION":97.6026,"RA_OF_ASC_NODE":183.5566,"ARG_OF_PERICENTER":91.9018,"MEAN_ANOMALY":268.242,"EPHEMERIS_TYPE":0,"CLASSIFICATION_TYPE":"U","NORAD_CAT_ID":53497,"ELEMENT_SET_NO":999,"REV_AT_EPOCH":19496,"BSTAR":3.9302676e-5,"MEAN_MOTION_DOT":4.47e-6,"MEAN_MOTION_DDOT":0}]
